start=new Date('2023-01-26T00:00:00.000Z').valueOf();
sats=[{"ARG_OF_PERICENTER":"74.3111","GP_ID":"223715548","TIME_SYSTEM":"UTC","OBJECT_ID":"2021-021M","ECCENTRICITY":"0.00025100","OBJECT_TYPE":"PAYLOAD","APOAPSIS":"548.936","FILE":"3761360","COUNTRY_CODE":"US","SITE":"AFETR","SEMIMAJOR_AXIS":"6925.333","ELEMENT_SET_NO":"999","LAUNCH_DATE":"2021-03-14","MEAN_ANOMALY":"285.8155","MEAN_MOTION":"15.06405109","MEAN_MOTION_DDOT":"0.0000000000000","PERIOD":"95.592","EPOCH":"2023-01-25T14:14:40.738848","DECAY_DATE":null,"EPHEMERIS_TYPE":"0","MEAN_ELEMENT_THEORY":"SGP4","PERIAPSIS":"545.460","CLASSIFICATION_TYPE":"U","INCLINATION":"53.0562","RCS_SIZE":"LARGE","REF_FRAME":"TEME","NORAD_CAT_ID":"47871","RA_OF_ASC_NODE":"335.2217","CENTER_NAME":"EARTH","OBJECT_NAME":"STARLINK-2327","MEAN_MOTION_DOT":"-0.00002787","TLE_LINE2":"2 47871  53.0562 335.2217 0002510  74.3111 285.8155 15.06405109104648","BSTAR":"-0.00016821000000","REV_AT_EPOCH":"10464","TLE_LINE1":"1 47871U 21021M   23025.59352707 -.00002787  00000-0 -16821-3 0  9990"},{"REV_AT_EPOCH":"10673","BSTAR":"0.00011323000000","MEAN_MOTION_DOT":"0.00017934","TLE_LINE2":"2 47872  53.0481 188.0357 0000054 147.1395 212.9627 15.76746555106739","TLE_LINE1":"1 47872U 21021N   23025.68658838  .00017934  00000-0  11323-3 0  9995","NORAD_CAT_ID":"47872","RCS_SIZE":"LARGE","REF_FRAME":"TEME","INCLINATION":"53.0481","OBJECT_NAME":"STARLINK-2328","CENTER_NAME":"EARTH","RA_OF_ASC_NODE":"188.0357","PERIOD":"91.327","MEAN_MOTION_DDOT":"0.0000000000000","MEAN_MOTION":"15.76746555","CLASSIFICATION_TYPE":"U","PERIAPSIS":"339.631","MEAN_ELEMENT_THEORY":"SGP4","EPHEMERIS_TYPE":"0","EPOCH":"2023-01-25T16:28:41.236032","DECAY_DATE":null,"COUNTRY_CODE":"US","APOAPSIS":"339.704","FILE":"3761360","ECCENTRICITY":"0.00000540","OBJECT_ID":"2021-021N","OBJECT_TYPE":"PAYLOAD","GP_ID":"223715798","ARG_OF_PERICENTER":"147.1395","TIME_SYSTEM":"UTC","ELEMENT_SET_NO":"999","LAUNCH_DATE":"2021-03-14","MEAN_ANOMALY":"212.9627","SEMIMAJOR_AXIS":"6717.803","SITE":"AFETR"},{"SITE":"AFETR","ELEMENT_SET_NO":"999","LAUNCH_DATE":"2021-03-14","MEAN_ANOMALY":"270.8941","SEMIMAJOR_AXIS":"6925.350","ECCENTRICITY":"0.00019620","OBJECT_ID":"2021-021P","OBJECT_TYPE":"PAYLOAD","ARG_OF_PERICENTER":"89.2273","GP_ID":"223688254","TIME_SYSTEM":"UTC","COUNTRY_CODE":"US","APOAPSIS":"548.573","FILE":"3761297","EPHEMERIS_TYPE":"0","EPOCH":"2023-01-25T13:48:08.927712","DECAY_DATE":null,"CLASSIFICATION_TYPE":"U","PERIAPSIS":"545.856","MEAN_ELEMENT_THEORY":"SGP4","MEAN_MOTION_DDOT":"0.0000000000000","MEAN_MOTION":"15.06399655","PERIOD":"95.592","CENTER_NAME":"EARTH","RA_OF_ASC_NODE":"335.2987","OBJECT_NAME":"STARLINK-2329","INCLINATION":"53.0553","NORAD_CAT_ID":"47873","RCS_SIZE":"LARGE","REF_FRAME":"TEME","TLE_LINE1":"1 47873U 21021P   23025.57510333  .00016623  00000-0  11322-2 0  9993","BSTAR":"0.00113220000000","MEAN_MOTION_DOT":"0.00016623","TLE_LINE2":"2 47873  53.0553 335.2987 0001962  89.2273 270.8941 15.06399655104632","REV_AT_EPOCH":"10463"},{"EPHEMERIS_TYPE":"0","DECAY_DATE":null,"EPOCH":"2023-01-25T12:26:32.375328","CLASSIFICATION_TYPE":"U","PERIAPSIS":"546.183","MEAN_ELEMENT_THEORY":"SGP4","MEAN_MOTION":"15.06393849","MEAN_MOTION_DDOT":"0.0000000000000","PERIOD":"95.593","SITE":"AFETR","MEAN_ANOMALY":"277.7212","ELEMENT_SET_NO":"999","LAUNCH_DATE":"2021-03-14","SEMIMAJOR_AXIS":"6925.367","OBJECT_TYPE":"PAYLOAD","OBJECT_ID":"2021-021Q","ECCENTRICITY":"0.00015150","TIME_SYSTEM":"UTC","ARG_OF_PERICENTER":"82.3949","GP_ID":"223687002","COUNTRY_CODE":"US","FILE":"3761297","APOAPSIS":"548.282","TLE_LINE1":"1 47874U 21021Q   23025.51843027  .00003525  00000-0  25546-3 0  9998","BSTAR":"0.00025546000000","TLE_LINE2":"2 47874  53.0518 290.5702 0001515  82.3949 277.7212 15.06393849105266","MEAN_MOTION_DOT":"0.00003525","REV_AT_EPOCH":"10526","CENTER_NAME":"EARTH","RA_OF_ASC_NODE":"290.5702","OBJECT_NAME":"STARLINK-2330","INCLINATION":"53.0518","NORAD_CAT_ID":"47874","REF_FRAME":"TEME","RCS_SIZE":"LARGE"},{"PERIOD":"95.592","MEAN_MOTION_DDOT":"0.0000000000000","MEAN_MOTION":"15.06401474","CLASSIFICATION_TYPE":"U","MEAN_ELEMENT_THEORY":"SGP4","PERIAPSIS":"546.460","EPHEMERIS_TYPE":"0","EPOCH":"2023-01-25T16:47:16.621152","DECAY_DATE":null,"COUNTRY_CODE":"US","APOAPSIS":"547.958","FILE":"3761360","ECCENTRICITY":"0.00010810","OBJECT_ID":"2021-021R","OBJECT_TYPE":"PAYLOAD","GP_ID":"223715049","ARG_OF_PERICENTER":"74.7973","TIME_SYSTEM":"UTC","ELEMENT_SET_NO":"999","LAUNCH_DATE":"2021-03-14","MEAN_ANOMALY":"285.3136","SEMIMAJOR_AXIS":"6925.344","SITE":"AFETR","REV_AT_EPOCH":"10457","BSTAR":"0.00013522000000","MEAN_MOTION_DOT":"0.00001733","TLE_LINE2":"2 47875  53.0551 344.7462 0001081  74.7973 285.3136 15.06401474104576","TLE_LINE1":"1 47875U 21021R   23025.69949793  .00001733  00000-0  13522-3 0  9995","NORAD_CAT_ID":"47875","RCS_SIZE":"LARGE","REF_FRAME":"TEME","INCLINATION":"53.0551","OBJECT_NAME":"STARLINK-2331","CENTER_NAME":"EARTH","RA_OF_ASC_NODE":"344.7462"},{"TLE_LINE2":"2 47876  53.0571 345.0893 0001769  91.7069 268.4122 15.06401420104511","MEAN_MOTION_DOT":"0.00009832","BSTAR":"0.00067798000000","REV_AT_EPOCH":"10451","TLE_LINE1":"1 47876U 21021S   23025.62209895  .00009832  00000-0  67798-3 0  9993","INCLINATION":"53.0571","REF_FRAME":"TEME","RCS_SIZE":"LARGE","NORAD_CAT_ID":"47876","RA_OF_ASC_NODE":"345.0893","CENTER_NAME":"EARTH","OBJECT_NAME":"STARLINK-2332","MEAN_MOTION":"15.06401420","MEAN_MOTION_DDOT":"0.0000000000000","PERIOD":"95.592","DECAY_DATE":null,"EPOCH":"2023-01-25T14:55:49.349280","EPHEMERIS_TYPE":"0","MEAN_ELEMENT_THEORY":"SGP4","PERIAPSIS":"545.984","CLASSIFICATION_TYPE":"U","TIME_SYSTEM":"UTC","GP_ID":"223715299","ARG_OF_PERICENTER":"91.7069","OBJECT_TYPE":"PAYLOAD","OBJECT_ID":"2021-021S","ECCENTRICITY":"0.00017690","FILE":"3761360","APOAPSIS":"548.434","COUNTRY_CODE":"US","SITE":"AFETR","SEMIMAJOR_AXIS":"6925.344","MEAN_ANOMALY":"268.4122","LAUNCH_DATE":"2021-03-14","ELEMENT_SET_NO":"999"},{"PERIOD":"95.591","MEAN_MOTION":"15.06418149","MEAN_MOTION_DDOT":"0.0000000000000","CLASSIFICATION_TYPE":"U","PERIAPSIS":"546.209","MEAN_ELEMENT_THEORY":"SGP4","EPHEMERIS_TYPE":"0","DECAY_DATE":null,"EPOCH":"2023-01-25T07:19:20.932032","COUNTRY_CODE":"US","FILE":"3761297","APOAPSIS":"548.107","OBJECT_TYPE":"PAYLOAD","OBJECT_ID":"2021-021T","ECCENTRICITY":"0.00013700","TIME_SYSTEM":"UTC","GP_ID":"223688755","ARG_OF_PERICENTER":"94.1829","MEAN_ANOMALY":"265.9317","ELEMENT_SET_NO":"999","LAUNCH_DATE":"2021-03-14","SEMIMAJOR_AXIS":"6925.293","SITE":"AFETR","REV_AT_EPOCH":"10445","BSTAR":"0.00149530000000","TLE_LINE2":"2 47877  53.0537 346.5239 0001370  94.1829 265.9317 15.06418149104450","MEAN_MOTION_DOT":"0.00022072","TLE_LINE1":"1 47877U 21021T   23025.30510338  .00022072  00000-0  14953-2 0  9991","NORAD_CAT_ID":"47877","REF_FRAME":"TEME","RCS_SIZE":"LARGE","INCLINATION":"53.0537","OBJECT_NAME":"STARLINK-2333","CENTER_NAME":"EARTH","RA_OF_ASC_NODE":"346.5239"},{"SITE":"AFETR","SEMIMAJOR_AXIS":"6925.347","MEAN_ANOMALY":"271.8281","LAUNCH_DATE":"2021-03-14","ELEMENT_SET_NO":"999","TIME_SYSTEM":"UTC","GP_ID":"223687503","ARG_OF_PERICENTER":"88.2860","OBJECT_TYPE":"PAYLOAD","OBJECT_ID":"2021-021U","ECCENTRICITY":"0.00013280","FILE":"3761297","APOAPSIS":"548.132","COUNTRY_CODE":"US","DECAY_DATE":null,"EPOCH":"2023-01-25T13:57:26.592192","EPHEMERIS_TYPE":"0","PERIAPSIS":"546.293","MEAN_ELEMENT_THEORY":"SGP4","CLASSIFICATION_TYPE":"U","MEAN_MOTION_DDOT":"0.0000000000000","MEAN_MOTION":"15.06400388","PERIOD":"95.592","RA_OF_ASC_NODE":"345.2767","CENTER_NAME":"EARTH","OBJECT_NAME":"STARLINK-2335","INCLINATION":"53.0546","REF_FRAME":"TEME","RCS_SIZE":"LARGE","NORAD_CAT_ID":"47878","TLE_LINE1":"1 47878U 21021U   23025.58155778  .00010396  00000-0  71577-3 0  9997","TLE_LINE2":"2 47878  53.0546 345.2767 0001328  88.2860 271.8281 15.06400388104299","MEAN_MOTION_DOT":"0.00010396","BSTAR":"0.00071577000000","REV_AT_EPOCH":"10429"},{"TLE_LINE1":"1 47879U 21021V   23025.64467361  .00003149  00000-0  23021-3 0  9998","TLE_LINE2":"2 47879  53.0550 359.9956 0001840  99.3023 260.8174 15.06402234104471","MEAN_MOTION_DOT":"0.00003149","BSTAR":"0.00023021000000","REV_AT_EPOCH":"10447","RA_OF_ASC_NODE":"359.9956","CENTER_NAME":"EARTH","OBJECT_NAME":"STARLINK-2336","INCLINATION":"53.0550","REF_FRAME":"TEME","RCS_SIZE":"LARGE","NORAD_CAT_ID":"47879","DECAY_DATE":null,"EPOCH":"2023-01-25T15:28:19.799904","EPHEMERIS_TYPE":"0","MEAN_ELEMENT_THEORY":"SGP4","PERIAPSIS":"545.932","CLASSIFICATION_TYPE":"U","MEAN_MOTION":"15.06402234","MEAN_MOTION_DDOT":"0.0000000000000","PERIOD":"95.592","SITE":"AFETR","SEMIMAJOR_AXIS":"6925.342","MEAN_ANOMALY":"260.8174","LAUNCH_DATE":"2021-03-14","ELEMENT_SET_NO":"999","TIME_SYSTEM":"UTC","GP_ID":"223715549","ARG_OF_PERICENTER":"99.3023","OBJECT_TYPE":"PAYLOAD","OBJECT_ID":"2021-021V","ECCENTRICITY":"0.00018400","FILE":"3761360","APOAPSIS":"548.481","COUNTRY_CODE":"US"},{"RA_OF_ASC_NODE":"355.1207","CENTER_NAME":"EARTH","OBJECT_NAME":"STARLINK-2337","INCLINATION":"53.0543","REF_FRAME":"TEME","RCS_SIZE":"LARGE","NORAD_CAT_ID":"47880","TLE_LINE1":"1 47880U 21021W   23025.61748811  .00001831  00000-0  14176-3 0  9996","TLE_LINE2":"2 47880  53.0543 355.1207 0001986  89.9653 270.1564 15.06401817104368","MEAN_MOTION_DOT":"0.00001831","BSTAR":"0.00014176000000","REV_AT_EPOCH":"10436","SITE":"AFETR","SEMIMAJOR_AXIS":"6925.343","MEAN_ANOMALY":"270.1564","ELEMENT_SET_NO":"999","LAUNCH_DATE":"2021-03-14","TIME_SYSTEM":"UTC","ARG_OF_PERICENTER":"89.9653","GP_ID":"223715799","OBJECT_TYPE":"PAYLOAD","OBJECT_ID":"2021-021W","ECCENTRICITY":"0.00019860","FILE":"3761360","APOAPSIS":"548.583","COUNTRY_CODE":"US","DECAY_DATE":null,"EPOCH":"2023-01-25T14:49:10.972704","EPHEMERIS_TYPE":"0","MEAN_ELEMENT_THEORY":"SGP4","PERIAPSIS":"545.833","CLASSIFICATION_TYPE":"U","MEAN_MOTION":"15.06401817","MEAN_MOTION_DDOT":"0.0000000000000","PERIOD":"95.592"}];
